[
  {
    "name": "KUIPER-00538",
    "noradId": "69608",
    "line1": "1 69608U 26140S   26193.21737683  .00015487  00000+0  42125-3 0  9991",
    "line2": "2 69608  51.8807 277.7349 0007273 335.4639  24.6001 15.37695853  5089"
  },
  {
    "name": "KUIPER-00540",
    "noradId": "69609",
    "line1": "1 69609U 26140T   26192.57758183  .00012977  00000+0  36378-3 0  9992",
    "line2": "2 69609  51.8830 280.9443 0006626  10.8065 349.3063 15.36919037  4980"
  },
  {
    "name": "KUIPER-00541",
    "noradId": "69610",
    "line1": "1 69610U 26140U   26191.90842681  .00013847  00000+0  36978-3 0  9990",
    "line2": "2 69610  51.8827 283.9683 0008333 308.1236  51.8999 15.38356975  4887"
  },
  {
    "name": "KUIPER-00542",
    "noradId": "69611",
    "line1": "1 69611U 26140V   26192.55655432  .00014210  00000+0  38071-3 0  9990",
    "line2": "2 69611  51.8812 280.8032 0007911 300.8666  59.1543 15.38234454  4987"
  },
  {
    "name": "KUIPER-00543",
    "noradId": "69612",
    "line1": "1 69612U 26140W   26193.23213661  .00016740  00000+0  46772-3 0  9998",
    "line2": "2 69612  51.8770 277.8153 0007680  26.9647 333.1737 15.36795183  5080"
  },
  {
    "name": "KUIPER-00544",
    "noradId": "69613",
    "line1": "1 69613U 26140X   26192.49579654  .00017604  00000+0  47072-3 0  9997",
    "line2": "2 69613  51.8799 281.1405 0006516 305.8745  54.1636 15.38126834  4973"
  },
  {
    "name": "KUIPER-00546",
    "noradId": "69614",
    "line1": "1 69614U 26140Y   26192.54029358  .00009228  00000+0  24596-3 0  9994",
    "line2": "2 69614  51.8783 280.6956 0014260 250.2493 109.6957 15.38810193  4981"
  },
  {
    "name": "KUIPER-00547",
    "noradId": "69615",
    "line1": "1 69615U 26140Z   26193.26915141  .00016984  00000+0  45776-3 0  9999",
    "line2": "2 69615  51.8825 277.3363 0010891 279.7825  80.1932 15.37873754  5095"
  },
  {
    "name": "KUIPER-00549",
    "noradId": "69616",
    "line1": "1 69616U 26140AA  26193.22346989  .00017753  00000+0  48713-3 0  9993",
    "line2": "2 69616  51.8818 277.7694 0008512   6.6806 353.4293 15.37306081  5081"
  },
  {
    "name": "KUIPER-00550",
    "noradId": "69617",
    "line1": "1 69617U 26140AB  26193.26240900 -.00007253  00000+0 -21492-3 0  9995",
    "line2": "2 69617  51.8797 278.0158 0010019  69.2499 290.9558 15.32625297  5082"
  },
  {
    "name": "KUIPER-00551",
    "noradId": "69618",
    "line1": "1 69618U 26140AC  26192.54709762  .00014799  00000+0  39373-3 0  9990",
    "line2": "2 69618  51.8777 280.7418 0012517 254.9847 104.9755 15.38371575  4989"
  },
  {
    "name": "KUIPER-00554",
    "noradId": "69619",
    "line1": "1 69619U 26140AD  26193.26741910  .00010028  00000+0  27433-3 0  9997",
    "line2": "2 69619  51.8780 277.3159 0011176 281.0431  78.9299 15.37928097  5090"
  },
  {
    "name": "KUIPER-00555",
    "noradId": "69620",
    "line1": "1 69620U 26140AE  26193.25002315  .00024874  00000+0  66427-3 0  9997",
    "line2": "2 69620  51.8816 277.3766 0011301 267.0810  11.6376 15.37896352  4559"
  },
  {
    "name": "KUIPER-00556",
    "noradId": "69621",
    "line1": "1 69621U 26140AF  26193.26423013  .00013913  00000+0  37195-3 0  9993",
    "line2": "2 69621  51.8789 277.2984 0011631 253.6905 106.2804 15.38289150  5092"
  },
  {
    "name": "KUIPER-00557",
    "noradId": "69622",
    "line1": "1 69622U 26140AG  26192.49247853  .00012516  00000+0  34424-3 0  9994",
    "line2": "2 69622  51.8807 281.1278 0009913 288.6863  71.3047 15.37527254  4971"
  },
  {
    "name": "KUIPER-00560",
    "noradId": "69623",
    "line1": "1 69623U 26140AH  26193.26467940 -.00039582  00000+0 -10138-2 0  9991",
    "line2": "2 69623  51.8790 277.2998 0010929 257.9949 101.9814 15.38632727  5090"
  },
  {
    "name": "KUIPER-00561",
    "noradId": "69624",
    "line1": "1 69624U 26140AJ  26192.74769253 -.00566727  00000+0 -15961-1 0  9990",
    "line2": "2 69624  51.8826 279.8412 0009245 285.6749  74.3218 15.38107852  5014"
  },
  {
    "name": "KUIPER-00564",
    "noradId": "69625",
    "line1": "1 69625U 26140AK  26192.55379724  .00009777  00000+0  27356-3 0  9998",
    "line2": "2 69625  51.8812 280.7881 0009375 286.2520  73.7435 15.37273245  4987"
  },
  {
    "name": "KUIPER-00567",
    "noradId": "69626",
    "line1": "1 69626U 26140AL  26193.26216314  .00017458  00000+0  46505-3 0  9995",
    "line2": "2 69626  51.8798 277.2788 0011450 266.7874  93.1803 15.38211067  5093"
  },
  {
    "name": "KUIPER-00573",
    "noradId": "69627",
    "line1": "1 69627U 26140AM  26192.49611577  .00014175  00000+0  38988-3 0  9999",
    "line2": "2 69627  51.8794 281.1424 0009230 272.3380  87.6550 15.37412133  4978"
  },
  {
    "name": "KUIPER-00258",
    "noradId": "69763",
    "line1": "1 69763U 26151A   26193.25002315 -.00003080  00000+0 -76855-4 0  9992",
    "line2": "2 69763  51.8671 194.7579 0011568 158.5495  74.6687 15.35422020  1925"
  },
  {
    "name": "KUIPER-00526",
    "noradId": "69764",
    "line1": "1 69764U 26151B   26193.25002315 -.00008965  00000+0 -23117-3 0  9992",
    "line2": "2 69764  51.8761 194.6321 0006104 129.1005 166.3472 15.37285275  1686"
  },
  {
    "name": "KUIPER-00558",
    "noradId": "69765",
    "line1": "1 69765U 26151C   26193.25002315 -.00008389  00000+0 -21913-3 0  9995",
    "line2": "2 69765  51.8754 194.6671 0007647 140.6934 137.7826 15.36776060  2164"
  },
  {
    "name": "KUIPER-00569",
    "noradId": "69766",
    "line1": "1 69766U 26151D   26193.25002315 -.00009907  00000+0 -25539-3 0  9991",
    "line2": "2 69766  51.8784 194.6164 0005159 126.8333 175.3003 15.37435909  1305"
  },
  {
    "name": "KUIPER-00589",
    "noradId": "69767",
    "line1": "1 69767U 26151E   26193.25002315 -.00009101  00000+0 -23414-3 0  9998",
    "line2": "2 69767  51.8751 194.6258 0005417 132.3415 166.5301 15.37380220  2190"
  },
  {
    "name": "KUIPER-00598",
    "noradId": "69768",
    "line1": "1 69768U 26151F   26193.25002315 -.00013712  00000+0 -38199-3 0  9998",
    "line2": "2 69768  51.8636 194.7461 0010094 154.4206  83.7236 15.35371372  2104"
  },
  {
    "name": "KUIPER-00604",
    "noradId": "69769",
    "line1": "1 69769U 26151G   26193.25002315 -.00011947  00000+0 -30269-3 0  9997",
    "line2": "2 69769  51.8794 194.5599 0002821  95.6247 232.8408 15.38200372  2517"
  },
  {
    "name": "KUIPER-00609",
    "noradId": "69770",
    "line1": "1 69770U 26151H   26193.25002315 -.00013018  00000+0 -32654-3 0  9990",
    "line2": "2 69770  51.8795 194.5282 0001199  43.5332 300.0936 15.38598739  1300"
  },
  {
    "name": "KUIPER-00611",
    "noradId": "69771",
    "line1": "1 69771U 26151J   26193.25002315 -.00012121  00000+0 -30516-3 0  9990",
    "line2": "2 69771  51.8798 194.5398 0001737  90.7878 245.3117 15.38412800  1305"
  },
  {
    "name": "KUIPER-00612",
    "noradId": "69772",
    "line1": "1 69772U 26151K   26193.25002315 -.00010309  00000+0 -26221-3 0  9995",
    "line2": "2 69772  51.8787 194.5837 0003800 104.5103 213.3319 15.37903553  1308"
  },
  {
    "name": "KUIPER-00614",
    "noradId": "69773",
    "line1": "1 69773U 26151L   26193.25002315 -.00010955  00000+0 -27742-3 0  9992",
    "line2": "2 69773  51.8797 194.5645 0002792 110.6563 214.7330 15.38115851  2096"
  },
  {
    "name": "KUIPER-00615",
    "noradId": "69774",
    "line1": "1 69774U 26151M   26193.25002315 -.00008965  00000+0 -23183-3 0  9996",
    "line2": "2 69774  51.8771 194.6380 0006117 135.8672 156.3490 15.37195403  1302"
  },
  {
    "name": "KUIPER-00616",
    "noradId": "69775",
    "line1": "1 69775U 26151N   26193.25002315 -.00011031  00000+0 -27722-3 0  9998",
    "line2": "2 69775  51.8779 194.5594 0003206 110.3556 219.9809 15.38354401  1308"
  },
  {
    "name": "KUIPER-00617",
    "noradId": "69776",
    "line1": "1 69776U 26151P   26193.25002315 -.00009667  00000+0 -24653-3 0  9991",
    "line2": "2 69776  51.8792 194.5912 0004079 123.3058 190.2030 15.37740616  1301"
  },
  {
    "name": "KUIPER-00619",
    "noradId": "69777",
    "line1": "1 69777U 26151Q   26193.25002315 -.00011728  00000+0 -29404-3 0  9992",
    "line2": "2 69777  51.8797 194.5335 0001843  54.3973 285.6993 15.38501434  1582"
  },
  {
    "name": "KUIPER-00621",
    "noradId": "69778",
    "line1": "1 69778U 26151R   26193.25002315 -.00011905  00000+0 -30072-3 0  9993",
    "line2": "2 69778  51.8789 194.5548 0002083 100.1051 231.6337 15.38290719  2332"
  },
  {
    "name": "KUIPER-00622",
    "noradId": "69779",
    "line1": "1 69779U 26151S   26193.25002315 -.00008550  00000+0 -22231-3 0  9994",
    "line2": "2 69779  51.8731 194.6540 0006834 137.3316 147.8570 15.36955220  2191"
  },
  {
    "name": "KUIPER-00623",
    "noradId": "69780",
    "line1": "1 69780U 26151T   26193.25002315 -.00009407  00000+0 -24227-3 0  9995",
    "line2": "2 69780  51.8775 194.6160 0005066 123.4182 179.3669 15.37397703  2312"
  },
  {
    "name": "KUIPER-00626",
    "noradId": "69781",
    "line1": "1 69781U 26151U   26193.25002315 -.00010897  00000+0 -29902-3 0  9996",
    "line2": "2 69781  51.8714 194.7272 0010047 154.8392  94.0574 15.35591837  2553"
  },
  {
    "name": "KUIPER-00627",
    "noradId": "69782",
    "line1": "1 69782U 26151V   26193.25002315 -.00013010  00000+0 -36025-3 0  9991",
    "line2": "2 69782  51.8689 194.7450 0011290 157.5313  82.4710 15.35490161  1300"
  },
  {
    "name": "KUIPER-00629",
    "noradId": "69783",
    "line1": "1 69783U 26151W   26193.25002315 -.00008616  00000+0 -22424-3 0  9996",
    "line2": "2 69783  51.8742 194.6585 0007348 136.8240 145.9723 15.36932354  1885"
  },
  {
    "name": "KUIPER-00631",
    "noradId": "69784",
    "line1": "1 69784U 26151X   26193.25002315 -.00008749  00000+0 -22954-3 0  9992",
    "line2": "2 69784  51.8710 194.6753 0007874 144.5123 130.0430 15.36702707  1302"
  },
  {
    "name": "KUIPER-00634",
    "noradId": "69785",
    "line1": "1 69785U 26151Y   26193.25002315 -.00009636  00000+0 -24606-3 0  9995",
    "line2": "2 69785  51.8767 194.5998 0003748 123.5476 187.6094 15.37698433  1304"
  }
]